[
    {
        "Altitude(m)": 622200.0889981537,
        "Argument of Periapsis(deg)": 0.0,
        "Eccentricity": 0.0,
        "Inclination(deg)": 60.0,
        "Latitude(deg)": -52.16248798797963,
        "Longitude(deg)": 147.36065401137648,
        "Mean Anomaly(deg)": -65.45449999999998,
        "RAAN(deg)": 295.00000000000006,
        "Satellite Name": "Test1 1316",
        "Satellite Number": 1316,
        "Semi-Major Axis(m)": 6980739.136638005,
        "Time(s)": 0
    },
    {
        "Altitude(m)": 622058.2570668219,
        "Argument of Periapsis(deg)": 0.00010418945913296404,
        "Eccentricity": 0.0,
        "Inclination(deg)": 60.0,
        "Latitude(deg)": -51.799238672524126,
        "Longitude(deg)": 148.1287123308597,
        "Mean Anomaly(deg)": -64.83439385453813,
        "RAAN(deg)": 294.99957995086027,
        "Satellite Name": "Test1 1316",
        "Satellite Number": 1316,
        "Semi-Major Axis(m)": 6980739.136638005,
        "Time(s)": 10
    }
]